IRIDIUM 119             
1 42959U 17061E   24034.13660390  .00000231  00000+0  75454-4 0  9999
2 42959  86.3965  26.7387 0002102  83.3875 276.7560 14.34220565330821
IRIDIUM 107             
1 42960U 17061F   24033.94632080  .00000235  00000+0  76714-4 0  9998
2 42960  86.3964  26.8342 0001887  89.9074 270.2338 14.34218175330800
IRIDIUM 132             
1 42961U 17061G   24034.02243634  .00000139  00000+0  42715-4 0  9999
2 42961  86.3965  26.7880 0001866  91.0345 269.1064 14.34218718330817
IRIDIUM 136             
1 42962U 17061H   24034.47275928  .00000377  00000+0  12739-3 0  9996
2 42962  86.3966  26.6021 0002259  81.5639 278.5813 14.34220793330892
IRIDIUM 139             
1 42963U 17061J   24034.06049149  .00000270  00000+0  89517-4 0  9997
2 42963  86.3965  26.8228 0001931  89.3339 270.8078 14.34217743330846
IRIDIUM 125             
1 42964U 17061K   24033.90826486  .00000276  00000+0  91445-4 0  9996
2 42964  86.3966  26.9314 0001984  79.2754 280.8665 14.34217855330838
IRIDIUM 135             
1 43070U 17083A   24033.81262976  .00000167  00000+0  52572-4 0  9994
2 43070  86.4001 323.6885 0002190  94.9932 265.1514 14.34217396320119
IRIDIUM 138             
1 43071U 17083B   24033.83799758  .00000022  00000+0  68479-6 0  9995
2 43071  86.3990 323.4123 0002070  79.2159 280.9270 14.34216178320103
